STARLINK-36633          
1 67632U 26020R   26037.25002315 -.01677004  78907-3 -45756-2 0  9990
2 67632  43.0005 333.5783 0001669 263.3155 340.9802 15.93297048  2339
STARLINK-36637          
1 67633U 26020S   26037.25002315 -.01670484  78440-3 -45275-2 0  9994
2 67633  43.0005 333.5738 0001593 261.8518 344.3290 15.93422703  2339
STARLINK-36617          
1 67634U 26020T   26037.25002315 -.01668395  78370-3 -44876-2 0  9991
2 67634  43.0006 333.5680 0001574 268.1973 340.1885 15.93565989  2339
STARLINK-36627          
1 67635U 26020U   26037.25002315 -.01660454  78067-3 -43503-2 0  9999
2 67635  43.0006 333.5482 0001613 261.3828 354.7789 15.94059518  2339
STARLINK-36624          
1 67636U 26020V   26037.25002315 -.01655387  77532-3 -43653-2 0  9991
2 67636  43.0007 333.5530 0001715 269.2678 345.1438 15.93936453  2334
STARLINK-36610          
1 67637U 26020W   26037.25002315 -.01655288  77770-3 -42920-2 0  9992
2 67637  43.0008 333.5420 0001674 268.4223 350.3336 15.94252928  2339
STARLINK-36599          
1 67638U 26020X   26037.25002315 -.01631809  75873-3 -41933-2 0  9991
2 67638  43.0006 333.5358 0001683 263.1025 358.0827 15.94417257  2338
STARLINK-36595          
1 67639U 26020Y   26037.25002315 -.01630286  75870-3 -41518-2 0  9996
2 67639  43.0006 333.5300 0001668 263.0861   0.3901 15.94585287  2335
STARLINK-36570          
1 67640U 26020Z   26037.25002315 -.01623363  75363-3 -41088-2 0  9995
2 67640  43.0006 333.5253 0001709 264.7158   0.5207 15.94698930  2338
STARLINK-36514          
1 67641U 26020AA  26037.25002315 -.01632221  76402-3 -40520-2 0  9994
2 67641  43.0005 333.5131 0001705 262.9575   7.1295 15.95059891  2330
STARLINK-36556          
1 67642U 26020AB  26037.25002315 -.01619327  75386-3 -39930-2 0  9990
2 67642  43.0005 333.5081 0001659 265.4136   6.5358 15.95182784  2335
STARLINK-36533          
1 67643U 26020AC  26037.25002315 -.01638182  76776-3 -41069-2 0  9991
2 67643  43.0005 333.5193 0001660 264.7337   2.8468 15.94878904  2333
