CCSDS_OMM_VERS = 2.0
CREATION_DATE  = 
ORIGINATOR     = 

OBJECT_NAME    = STARLINK-36633
OBJECT_ID      = 2026-020R
CENTER_NAME    = EARTH
REF_FRAME      = TEME
TIME_SYSTEM    = UTC
MEAN_ELEMENT_THEORY = SGP/SGP4

EPOCH          = 2026-02-06T06:00:02.000160
MEAN_MOTION    = 15.93297048
ECCENTRICITY   = .00016691
INCLINATION    = 43.0005
RA_OF_ASC_NODE = 333.5783
ARG_OF_PERICENTER = 263.3155
MEAN_ANOMALY   = 340.9802

EPHEMERIS_TYPE = 0
CLASSIFICATION_TYPE = U
NORAD_CAT_ID   = 67632
ELEMENT_SET_NO = 999
REV_AT_EPOCH   = 233
BSTAR          = -.45756254E-2
MEAN_MOTION_DOT = -.1677004E-1
MEAN_MOTION_DDOT = .78907297E-3

CCSDS_OMM_VERS = 2.0
CREATION_DATE  = 
ORIGINATOR     = 

OBJECT_NAME    = STARLINK-36637
OBJECT_ID      = 2026-020S
CENTER_NAME    = EARTH
REF_FRAME      = TEME
TIME_SYSTEM    = UTC
MEAN_ELEMENT_THEORY = SGP/SGP4

EPOCH          = 2026-02-06T06:00:02.000160
MEAN_MOTION    = 15.93422703
ECCENTRICITY   = .00015932
INCLINATION    = 43.0005
RA_OF_ASC_NODE = 333.5738
ARG_OF_PERICENTER = 261.8518
MEAN_ANOMALY   = 344.3290

EPHEMERIS_TYPE = 0
CLASSIFICATION_TYPE = U
NORAD_CAT_ID   = 67633
ELEMENT_SET_NO = 999
REV_AT_EPOCH   = 233
BSTAR          = -.45274867E-2
MEAN_MOTION_DOT = -.1670484E-1
MEAN_MOTION_DDOT = .78439841E-3

CCSDS_OMM_VERS = 2.0
CREATION_DATE  = 
ORIGINATOR     = 

OBJECT_NAME    = STARLINK-36617
OBJECT_ID      = 2026-020T
CENTER_NAME    = EARTH
REF_FRAME      = TEME
TIME_SYSTEM    = UTC
MEAN_ELEMENT_THEORY = SGP/SGP4

EPOCH          = 2026-02-06T06:00:02.000160
MEAN_MOTION    = 15.93565989
ECCENTRICITY   = .00015748
INCLINATION    = 43.0006
RA_OF_ASC_NODE = 333.5680
ARG_OF_PERICENTER = 268.1973
MEAN_ANOMALY   = 340.1885

EPHEMERIS_TYPE = 0
CLASSIFICATION_TYPE = U
NORAD_CAT_ID   = 67634
ELEMENT_SET_NO = 999
REV_AT_EPOCH   = 233
BSTAR          = -.44875903E-2
MEAN_MOTION_DOT = -.1668395E-1
MEAN_MOTION_DDOT = .78370273E-3

CCSDS_OMM_VERS = 2.0
CREATION_DATE  = 
ORIGINATOR     = 

OBJECT_NAME    = STARLINK-36627
OBJECT_ID      = 2026-020U
CENTER_NAME    = EARTH
REF_FRAME      = TEME
TIME_SYSTEM    = UTC
MEAN_ELEMENT_THEORY = SGP/SGP4

EPOCH          = 2026-02-06T06:00:02.000160
MEAN_MOTION    = 15.94059518
ECCENTRICITY   = .0001613
INCLINATION    = 43.0006
RA_OF_ASC_NODE = 333.5482
ARG_OF_PERICENTER = 261.3828
MEAN_ANOMALY   = 354.7789

EPHEMERIS_TYPE = 0
CLASSIFICATION_TYPE = U
NORAD_CAT_ID   = 67635
ELEMENT_SET_NO = 999
REV_AT_EPOCH   = 233
BSTAR          = -.4350304E-2
MEAN_MOTION_DOT = -.1660454E-1
MEAN_MOTION_DDOT = .78066804E-3

CCSDS_OMM_VERS = 2.0
CREATION_DATE  = 
ORIGINATOR     = 

OBJECT_NAME    = STARLINK-36624
OBJECT_ID      = 2026-020V
CENTER_NAME    = EARTH
REF_FRAME      = TEME
TIME_SYSTEM    = UTC
MEAN_ELEMENT_THEORY = SGP/SGP4

EPOCH          = 2026-02-06T06:00:02.000160
MEAN_MOTION    = 15.93936453
ECCENTRICITY   = .00017153
INCLINATION    = 43.0007
RA_OF_ASC_NODE = 333.5530
ARG_OF_PERICENTER = 269.2678
MEAN_ANOMALY   = 345.1438

EPHEMERIS_TYPE = 0
CLASSIFICATION_TYPE = U
NORAD_CAT_ID   = 67636
ELEMENT_SET_NO = 999
REV_AT_EPOCH   = 233
BSTAR          = -.4365307E-2
MEAN_MOTION_DOT = -.1655387E-1
MEAN_MOTION_DDOT = .77532292E-3

CCSDS_OMM_VERS = 2.0
CREATION_DATE  = 
ORIGINATOR     = 

OBJECT_NAME    = STARLINK-36610
OBJECT_ID      = 2026-020W
CENTER_NAME    = EARTH
REF_FRAME      = TEME
TIME_SYSTEM    = UTC
MEAN_ELEMENT_THEORY = SGP/SGP4

EPOCH          = 2026-02-06T06:00:02.000160
MEAN_MOTION    = 15.94252928
ECCENTRICITY   = .00016741
INCLINATION    = 43.0008
RA_OF_ASC_NODE = 333.5420
ARG_OF_PERICENTER = 268.4223
MEAN_ANOMALY   = 350.3336

EPHEMERIS_TYPE = 0
CLASSIFICATION_TYPE = U
NORAD_CAT_ID   = 67637
ELEMENT_SET_NO = 999
REV_AT_EPOCH   = 233
BSTAR          = -.4292022E-2
MEAN_MOTION_DOT = -.1655288E-1
MEAN_MOTION_DDOT = .77769671E-3

CCSDS_OMM_VERS = 2.0
CREATION_DATE  = 
ORIGINATOR     = 

OBJECT_NAME    = STARLINK-36599
OBJECT_ID      = 2026-020X
CENTER_NAME    = EARTH
REF_FRAME      = TEME
TIME_SYSTEM    = UTC
MEAN_ELEMENT_THEORY = SGP/SGP4

EPOCH          = 2026-02-06T06:00:02.000160
MEAN_MOTION    = 15.94417257
ECCENTRICITY   = .00016831
INCLINATION    = 43.0006
RA_OF_ASC_NODE = 333.5358
ARG_OF_PERICENTER = 263.1025
MEAN_ANOMALY   = 358.0827

EPHEMERIS_TYPE = 0
CLASSIFICATION_TYPE = U
NORAD_CAT_ID   = 67638
ELEMENT_SET_NO = 999
REV_AT_EPOCH   = 233
BSTAR          = -.41933393E-2
MEAN_MOTION_DOT = -.1631809E-1
MEAN_MOTION_DDOT = .75872562E-3

CCSDS_OMM_VERS = 2.0
CREATION_DATE  = 
ORIGINATOR     = 

OBJECT_NAME    = STARLINK-36595
OBJECT_ID      = 2026-020Y
CENTER_NAME    = EARTH
REF_FRAME      = TEME
TIME_SYSTEM    = UTC
MEAN_ELEMENT_THEORY = SGP/SGP4

EPOCH          = 2026-02-06T06:00:02.000160
MEAN_MOTION    = 15.94585287
ECCENTRICITY   = .00016682
INCLINATION    = 43.0006
RA_OF_ASC_NODE = 333.5300
ARG_OF_PERICENTER = 263.0861
MEAN_ANOMALY   = 0.3901

EPHEMERIS_TYPE = 0
CLASSIFICATION_TYPE = U
NORAD_CAT_ID   = 67639
ELEMENT_SET_NO = 999
REV_AT_EPOCH   = 233
BSTAR          = -.41518336E-2
MEAN_MOTION_DOT = -.1630286E-1
MEAN_MOTION_DDOT = .75870132E-3

CCSDS_OMM_VERS = 2.0
CREATION_DATE  = 
ORIGINATOR     = 

OBJECT_NAME    = STARLINK-36570
OBJECT_ID      = 2026-020Z
CENTER_NAME    = EARTH
REF_FRAME      = TEME
TIME_SYSTEM    = UTC
MEAN_ELEMENT_THEORY = SGP/SGP4

EPOCH          = 2026-02-06T06:00:02.000160
MEAN_MOTION    = 15.94698930
ECCENTRICITY   = .0001709
INCLINATION    = 43.0006
RA_OF_ASC_NODE = 333.5253
ARG_OF_PERICENTER = 264.7158
MEAN_ANOMALY   = 0.5207

EPHEMERIS_TYPE = 0
CLASSIFICATION_TYPE = U
NORAD_CAT_ID   = 67640
ELEMENT_SET_NO = 999
REV_AT_EPOCH   = 233
BSTAR          = -.41088055E-2
MEAN_MOTION_DOT = -.1623363E-1
MEAN_MOTION_DDOT = .75363378E-3

CCSDS_OMM_VERS = 2.0
CREATION_DATE  = 
ORIGINATOR     = 

OBJECT_NAME    = STARLINK-36514
OBJECT_ID      = 2026-020AA
CENTER_NAME    = EARTH
REF_FRAME      = TEME
TIME_SYSTEM    = UTC
MEAN_ELEMENT_THEORY = SGP/SGP4

EPOCH          = 2026-02-06T06:00:02.000160
MEAN_MOTION    = 15.95059891
ECCENTRICITY   = .00017053
INCLINATION    = 43.0005
RA_OF_ASC_NODE = 333.5131
ARG_OF_PERICENTER = 262.9575
MEAN_ANOMALY   = 7.1295

EPHEMERIS_TYPE = 0
CLASSIFICATION_TYPE = U
NORAD_CAT_ID   = 67641
ELEMENT_SET_NO = 999
REV_AT_EPOCH   = 233
BSTAR          = -.40520132E-2
MEAN_MOTION_DOT = -.1632221E-1
MEAN_MOTION_DDOT = .76401545E-3

CCSDS_OMM_VERS = 2.0
CREATION_DATE  = 
ORIGINATOR     = 

OBJECT_NAME    = STARLINK-36556
OBJECT_ID      = 2026-020AB
CENTER_NAME    = EARTH
REF_FRAME      = TEME
TIME_SYSTEM    = UTC
MEAN_ELEMENT_THEORY = SGP/SGP4

EPOCH          = 2026-02-06T06:00:02.000160
MEAN_MOTION    = 15.95182784
ECCENTRICITY   = .00016597
INCLINATION    = 43.0005
RA_OF_ASC_NODE = 333.5081
ARG_OF_PERICENTER = 265.4136
MEAN_ANOMALY   = 6.5358

EPHEMERIS_TYPE = 0
CLASSIFICATION_TYPE = U
NORAD_CAT_ID   = 67642
ELEMENT_SET_NO = 999
REV_AT_EPOCH   = 233
BSTAR          = -.39930417E-2
MEAN_MOTION_DOT = -.1619327E-1
MEAN_MOTION_DDOT = .75386135E-3

CCSDS_OMM_VERS = 2.0
CREATION_DATE  = 
ORIGINATOR     = 

OBJECT_NAME    = STARLINK-36533
OBJECT_ID      = 2026-020AC
CENTER_NAME    = EARTH
REF_FRAME      = TEME
TIME_SYSTEM    = UTC
MEAN_ELEMENT_THEORY = SGP/SGP4

EPOCH          = 2026-02-06T06:00:02.000160
MEAN_MOTION    = 15.94878904
ECCENTRICITY   = .00016602
INCLINATION    = 43.0005
RA_OF_ASC_NODE = 333.5193
ARG_OF_PERICENTER = 264.7337
MEAN_ANOMALY   = 2.8468

EPHEMERIS_TYPE = 0
CLASSIFICATION_TYPE = U
NORAD_CAT_ID   = 67643
ELEMENT_SET_NO = 999
REV_AT_EPOCH   = 233
BSTAR          = -.41068945E-2
MEAN_MOTION_DOT = -.1638182E-1
MEAN_MOTION_DDOT = .7677609E-3

